NORAD_CAT_ID,OBJECT_NAME,OBJECT_TYPE,EPOCH,MEAN_MOTION,ECCENTRICITY,INCLINATION,RA_OF_ASC_NODE,ARG_OF_PERICENTER,MEAN_ANOMALY,BSTAR,MEAN_MOTION_DOT,MEAN_MOTION_DDOT,TLE_LINE0,TLE_LINE1,TLE_LINE2,SEMIMAJOR_AXIS,PERIOD,APOGEE,PERIGEE,DECAYED
52581.0,STARLINK-3915,PAYLOAD,2024-06-28 20:37:36,15.08850139,0.0001174,53.2164,17.1585,100.1064,260.0061,0.00054087,8.333e-05,0.0,0 STARLINK-3915,1 52581U 22051AX  24180.85945185  .00008333  00000-0  54087-3 0  9995,2 52581  53.2164  17.1585 0001174 100.1064 260.0061 15.08850139118236,6917.849,95.437,540.527,538.902,0.0
52581.0,STARLINK-3915,PAYLOAD,2024-06-29 12:31:28,15.08834869,0.0001847,53.2176,14.1908,81.1634,278.9567,0.0001543,2.168e-05,0.0,0 STARLINK-3915,1 52581U 22051AX  24181.52186093  .00002168  00000-0  15430-3 0  9994,2 52581  53.2176  14.1908 0001847  81.1634 278.9567 15.08834869118335,6917.896,95.438,541.039,538.483,0.0
52581.0,STARLINK-3915,PAYLOAD,2024-06-29 20:28:24,15.08832578,0.0001199,53.2167,12.7006,78.3283,281.7844,-0.00012476,-2.272e-05,0.0,0 STARLINK-3915,1 52581U 22051AX  24181.85305963 -.00002272  00000-0 -12476-3 0  9994,2 52581  53.2167  12.7006 0001199  78.3283 281.7844 15.08832578118319,6917.903,95.438,540.598,538.939,0.0
52581.0,STARLINK-3915,PAYLOAD,2024-06-30 12:22:15,15.08831852,0.0001245,53.2162,9.7276,80.7075,279.4058,1.1749e-05,-1.01e-06,0.0,0 STARLINK-3915,1 52581U 22051AX  24182.51546073 -.00000101  00000-0  11749-4 0  9998,2 52581  53.2162   9.7276 0001245  80.7075 279.4058 15.08831852118413,6917.905,95.438,540.632,538.909,0.0
52581.0,STARLINK-3915,PAYLOAD,2024-06-30 18:43:48,15.08836336,0.0001165,53.2145,8.5368,83.1329,276.9796,4.8857e-05,4.9e-06,0.0,0 STARLINK-3915,1 52581U 22051AX  24182.78042135  .00000490  00000-0  48857-4 0  9997,2 52581  53.2145   8.5368 0001165  83.1329 276.9796 15.08836336118528,6917.892,95.438,540.563,538.951,0.0
52581.0,STARLINK-3915,PAYLOAD,2024-07-01 05:51:29,15.08851268,0.0001398,53.217,6.455,75.4535,284.6612,0.00028495,4.251e-05,0.0,0 STARLINK-3915,1 52581U 22051AX  24183.24409671  .00004251  00000-0  28495-3 0  9995,2 52581  53.2170   6.4550 0001398  75.4535 284.6612 15.08851268118598,6917.846,95.437,540.678,538.744,0.0
52581.0,STARLINK-3915,PAYLOAD,2024-07-01 18:34:35,15.08837182,0.0001032,53.2174,4.0772,77.9233,282.1875,0.00022034,3.22e-05,0.0,0 STARLINK-3915,1 52581U 22051AX  24183.77402501  .00003220  00000-0  22034-3 0  9996,2 52581  53.2174   4.0772 0001032  77.9233 282.1875 15.08837182118671,6917.889,95.438,540.468,539.04,0.0
52581.0,STARLINK-3915,PAYLOAD,2024-07-02 12:03:50,15.08843505,0.0001375,53.2192,0.804,98.438,261.6768,0.00027674,4.12e-05,0.0,0 STARLINK-3915,1 52581U 22051AX  24184.50266430  .00004120  00000-0  27674-3 0  9992,2 52581  53.2192   0.8040 0001375  98.4380 261.6768 15.08843505118718,6917.87,95.437,540.686,538.783,0.0
52581.0,STARLINK-3915,PAYLOAD,2024-07-02 18:25:22,15.08839987,0.0001288,53.2186,359.6141,97.2322,262.8816,0.00029248,4.37e-05,0.0,0 STARLINK-3915,1 52581U 22051AX  24184.76762595  .00004370  00000-0  29248-3 0  9999,2 52581  53.2186 359.6141 0001288  97.2322 262.8816 15.08839987118754,6917.88,95.438,540.636,538.854,0.0
52581.0,STARLINK-3915,PAYLOAD,2024-07-03 11:54:37,15.08840681,0.0001218,53.2183,356.3426,96.3325,263.7806,0.00020433,2.966e-05,0.0,0 STARLINK-3915,1 52581U 22051AX  24185.49626707  .00002966  00000-0  20433-3 0  9990,2 52581  53.2183 356.3426 0001218  96.3325 263.7806 15.08840681118939,6917.878,95.438,540.586,538.901,0.0
52581.0,STARLINK-3915,PAYLOAD,2024-07-03 18:16:10,15.08838781,9.97e-05,53.2172,355.1565,91.5712,268.5394,0.00015894,2.243e-05,0.0,0 STARLINK-3915,1 52581U 22051AX  24185.76122767  .00002243  00000-0  15894-3 0  9990,2 52581  53.2172 355.1565 0000997  91.5712 268.5394 15.08838781118908,6917.884,95.438,540.439,539.059,0.0
52581.0,STARLINK-3915,PAYLOAD,2024-07-04 14:56:10,15.08835464,0.0001493,53.2178,351.2909,102.3994,257.7165,1.5303e-05,-4.4e-07,0.0,0 STARLINK-3915,1 52581U 22051AX  24186.62234915 -.00000044  00000-0  15303-4 0  9999,2 52581  53.2178 351.2909 0001493 102.3994 257.7165 15.08835464119034,6917.894,95.438,540.792,538.726,0.0
52581.0,STARLINK-3915,PAYLOAD,2024-07-04 18:06:57,15.08838103,0.0001332,53.2184,350.6979,103.4511,256.6629,6.8403e-05,8.01e-06,0.0,0 STARLINK-3915,1 52581U 22051AX  24186.75482824  .00000801  00000-0  68403-4 0  9996,2 52581  53.2184 350.6979 0001332 103.4511 256.6629 15.08838103119126,6917.886,95.438,540.673,538.83,0.0
52581.0,STARLINK-3915,PAYLOAD,2024-07-05 03:39:15,15.08851356,0.0001302,53.2188,348.9132,100.286,259.8279,0.00027996,4.172e-05,0.0,0 STARLINK-3915,1 52581U 22051AX  24187.15226252  .00004172  00000-0  27996-3 0  9998,2 52581  53.2188 348.9132 0001302 100.2860 259.8279 15.08851356119187,6917.846,95.437,540.611,538.81,0.0
52581.0,STARLINK-3915,PAYLOAD,2024-07-05 14:46:58,15.08840954,0.0002102,53.218,346.8323,88.2867,271.8366,0.00011979,1.619e-05,0.0,0 STARLINK-3915,1 52581U 22051AX  24187.61594987  .00001619  00000-0  11979-3 0  9999,2 52581  53.2180 346.8323 0002102  88.2867 271.8366 15.08840954119182,6917.877,95.437,541.197,538.288,0.0
52581.0,STARLINK-3915,PAYLOAD,2024-07-05 17:57:44,15.08841466,0.0001413,53.2185,346.234,77.8004,282.3146,0.00011922,1.61e-05,0.0,0 STARLINK-3915,1 52581U 22051AX  24187.74842794  .00001610  00000-0  11922-3 0  9994,2 52581  53.2185 346.2340 0001413  77.8004 282.3146 15.08841466119273,6917.876,95.437,540.718,538.763,0.0
52581.0,STARLINK-3915,PAYLOAD,2024-07-05 21:08:30,15.08843786,0.0001524,53.2184,345.638,71.7259,288.3899,0.00020293,2.943e-05,0.0,0 STARLINK-3915,1 52581U 22051AX  24187.88090767  .00002943  00000-0  20293-3 0  9995,2 52581  53.2184 345.6380 0001524  71.7259 288.3899 15.08843786119220,6917.869,95.437,540.788,538.68,0.0
52581.0,STARLINK-3915,PAYLOAD,2024-07-06 03:30:02,15.08857856,0.0001413,53.2179,344.4515,79.4509,280.6643,0.00067779,0.00010521,0.0,0 STARLINK-3915,1 52581U 22051AX  24188.14586282  .00010521  00000-0  67779-3 0  9998,2 52581  53.2179 344.4515 0001413  79.4509 280.6643 15.08857856119338,6917.826,95.436,540.668,538.713,0.0
52581.0,STARLINK-3915,PAYLOAD,2024-07-06 09:51:35,15.08856247,0.0003278,53.2184,343.2635,82.8906,277.2459,0.00094209,0.00014744,0.0,0 STARLINK-3915,1 52581U 22051AX  24188.41082918  .00014744  00000-0  94209-3 0  9994,2 52581  53.2184 343.2635 0003278  82.8906 277.2459 15.08856247119378,6917.831,95.437,541.963,537.428,0.0
52581.0,STARLINK-3915,PAYLOAD,2024-07-06 14:37:45,15.08830094,0.0001283,53.2177,342.37,86.8421,273.2718,9.4039e-05,1.209e-05,0.0,0 STARLINK-3915,1 52581U 22051AX  24188.60954988  .00001209  00000-0  94039-4 0  9994,2 52581  53.2177 342.3700 0001283  86.8421 273.2718 15.08830094119335,6917.911,95.438,540.663,538.888,0.0
52581.0,STARLINK-3915,PAYLOAD,2024-07-06 19:23:54,15.08837406,0.0001248,53.2175,341.4772,92.7819,267.3316,0.00067223,0.00010426,0.0,0 STARLINK-3915,1 52581U 22051AX  24188.80827066  .00010426  00000-0  67223-3 0  9997,2 52581  53.2175 341.4772 0001248  92.7819 267.3316 15.08837406119433,6917.888,95.438,540.617,538.89,0.0
52581.0,STARLINK-3915,PAYLOAD,2024-07-07 09:42:22,15.08847976,0.0001224,53.2174,338.8001,86.5226,273.5906,0.00089348,0.00013963,0.0,0 STARLINK-3915,1 52581U 22051AX  24189.40443128  .00013963  00000-0  89348-3 0  9998,2 52581  53.2174 338.8001 0001224  86.5226 273.5906 15.08847976119453,6917.856,95.437,540.568,538.874,0.0
52581.0,STARLINK-3915,PAYLOAD,2024-07-07 19:14:41,15.08849873,0.0001191,53.2171,337.0163,87.6636,272.4493,0.0016852,0.00026641,0.0,0 STARLINK-3915,1 52581U 22051AX  24189.80187484  .00026641  00000-0  16852-2 0  9998,2 52581  53.2171 337.0163 0001191  87.6636 272.4493 15.08849873119581,6917.85,95.437,540.539,538.891,0.0
52581.0,STARLINK-3915,PAYLOAD,2024-07-08 09:33:10,15.08851611,0.0001243,53.2159,334.342,91.6905,268.423,0.00082876,0.00012931,0.0,0 STARLINK-3915,1 52581U 22051AX  24190.39803342  .00012931  00000-0  82876-3 0  9999,2 52581  53.2159 334.3420 0001243  91.6905 268.4230 15.08851611119672,6917.845,95.437,540.57,538.85,0.0
52581.0,STARLINK-3915,PAYLOAD,2024-07-08 14:19:19,15.08849453,0.0001424,53.2173,333.4486,84.0102,276.1052,0.00050804,7.809e-05,0.0,0 STARLINK-3915,1 52581U 22051AX  24190.59675391  .00007809  00000-0  50804-3 0  9996,2 52581  53.2173 333.4486 0001424  84.0102 276.1052 15.08849453119631,6917.851,95.437,540.702,538.731,0.0
52581.0,STARLINK-3915,PAYLOAD,2024-07-08 15:54:42,15.08852677,0.0001179,53.216,333.1502,89.0125,271.1002,0.00056048,8.646e-05,0.0,0 STARLINK-3915,1 52581U 22051AX  24190.66299197  .00008646  00000-0  56048-3 0  9996,2 52581  53.2160 333.1502 0001179  89.0125 271.1002 15.08852677119643,6917.842,95.437,540.522,538.891,0.0
52581.0,STARLINK-3915,PAYLOAD,2024-07-09 12:34:43,15.0884061,0.0001579,53.2172,329.285,93.7721,266.3451,-1.88e-05,-5.87e-06,0.0,0 STARLINK-3915,1 52581U 22051AX  24191.52411176 -.00000587  00000-0 -18800-4 0  9998,2 52581  53.2172 329.2850 0001579  93.7721 266.3451 15.08840610119846,6917.879,95.438,540.836,538.651,0.0
52581.0,STARLINK-3915,PAYLOAD,2024-07-09 14:10:06,15.0884122,0.0001597,53.2174,328.9878,93.245,266.8725,1.8886e-05,1.3e-07,0.0,0 STARLINK-3915,1 52581U 22051AX  24191.59035177  .00000013  00000-0  18886-4 0  9994,2 52581  53.2174 328.9878 0001597  93.2450 266.8725 15.08841220119788,6917.877,95.437,540.846,538.637,0.0
52581.0,STARLINK-3915,PAYLOAD,2024-07-09 15:45:29,15.08841389,0.0001596,53.2174,328.6907,91.4548,268.6627,4.5498e-05,4.36e-06,0.0,0 STARLINK-3915,1 52581U 22051AX  24191.65659186  .00000436  00000-0  45498-4 0  9991,2 52581  53.2174 328.6907 0001596  91.4548 268.6627 15.08841389119793,6917.876,95.437,540.845,538.637,0.0
52581.0,STARLINK-3915,PAYLOAD,2024-07-10 15:36:16,15.08844282,0.000165,53.2184,324.2305,94.7165,265.4016,0.00047956,7.353e-05,0.0,0 STARLINK-3915,1 52581U 22051AX  24192.65019487  .00007353  00000-0  47956-3 0  9991,2 52581  53.2184 324.2305 0001650  94.7165 265.4016 15.08844282120019,6917.867,95.437,540.874,538.591,0.0
